start=new Date('2022-07-01T00:00:00.000Z').valueOf();
sats=[{"ECCENTRICITY":"0.00016570","MEAN_ANOMALY":"296.1304","CENTER_NAME":"EARTH","FILE":"3505946","REF_FRAME":"TEME","ARG_OF_PERICENTER":"37.3576","REV_AT_EPOCH":"130","MEAN_MOTION":"15.32244435","TLE_LINE2":"2 52604  53.2174 210.7346 0001657  37.3576 296.1304 15.32244435  1306","RA_OF_ASC_NODE":"210.7346","CLASSIFICATION_TYPE":"U","LAUNCH_DATE":"2022-05-14","MEAN_MOTION_DDOT":"0.0000000000000","RCS_SIZE":"LARGE","SITE":"AFETR","NORAD_CAT_ID":"52604","OBJECT_TYPE":"PAYLOAD","SEMIMAJOR_AXIS":"6847.255","ELEMENT_SET_NO":"999","EPOCH":"2022-06-30T22:00:00.999936","INCLINATION":"53.2174","OBJECT_ID":"2022-052G","APOAPSIS":"470.254","PERIOD":"93.980","TLE_LINE1":"1 52604U 22052G   22181.91667824 -.00713575  00000-0 -24480-1 0  9994","DECAY_DATE":null,"BSTAR":"-0.02448000000000","MEAN_ELEMENT_THEORY":"SGP4","COUNTRY_CODE":"US","PERIAPSIS":"467.985","TIME_SYSTEM":"UTC","EPHEMERIS_TYPE":"0","OBJECT_NAME":"STARLINK-4013","GP_ID":"207179489","MEAN_MOTION_DOT":"-0.00713575"},{"ELEMENT_SET_NO":"999","INCLINATION":"53.2174","EPOCH":"2022-06-30T22:00:00.999936","TLE_LINE1":"1 52605U 22052H   22181.91667824 -.00794221  00000-0 -52127-1 0  9991","DECAY_DATE":null,"APOAPSIS":"538.265","OBJECT_ID":"2022-052H","PERIOD":"95.383","COUNTRY_CODE":"US","BSTAR":"-0.05212700000000","MEAN_ELEMENT_THEORY":"SGP4","EPHEMERIS_TYPE":"0","OBJECT_NAME":"STARLINK-4000","TIME_SYSTEM":"UTC","GP_ID":"207180044","PERIAPSIS":"535.985","MEAN_MOTION_DOT":"-0.00794221","ECCENTRICITY":"0.00016480","FILE":"3505946","REF_FRAME":"TEME","CENTER_NAME":"EARTH","MEAN_ANOMALY":"29.3486","ARG_OF_PERICENTER":"41.2074","REV_AT_EPOCH":"130","CLASSIFICATION_TYPE":"U","LAUNCH_DATE":"2022-05-14","TLE_LINE2":"2 52605  53.2174 214.5042 0001648  41.2074  29.3486 15.09697685  1309","MEAN_MOTION":"15.09697685","RA_OF_ASC_NODE":"214.5042","MEAN_MOTION_DDOT":"0.0000000000000","NORAD_CAT_ID":"52605","RCS_SIZE":"LARGE","SITE":"AFETR","SEMIMAJOR_AXIS":"6915.260","OBJECT_TYPE":"PAYLOAD"},{"MEAN_MOTION_DOT":"-0.00713668","GP_ID":"207179590","TIME_SYSTEM":"UTC","EPHEMERIS_TYPE":"0","OBJECT_NAME":"STARLINK-3928","PERIAPSIS":"467.433","COUNTRY_CODE":"US","MEAN_ELEMENT_THEORY":"SGP4","BSTAR":"-0.02433100000000","DECAY_DATE":null,"TLE_LINE1":"1 52606U 22052J   22181.91667824 -.00713668  00000-0 -24331-1 0  9994","PERIOD":"93.968","APOAPSIS":"469.625","OBJECT_ID":"2022-052J","INCLINATION":"53.2174","EPOCH":"2022-06-30T22:00:00.999936","ELEMENT_SET_NO":"999","SEMIMAJOR_AXIS":"6846.664","OBJECT_TYPE":"PAYLOAD","NORAD_CAT_ID":"52606","SITE":"AFETR","RCS_SIZE":"LARGE","MEAN_MOTION_DDOT":"0.0000000000000","LAUNCH_DATE":"2022-05-14","CLASSIFICATION_TYPE":"U","RA_OF_ASC_NODE":"210.7417","TLE_LINE2":"2 52606  53.2174 210.7417 0001601  39.1426 303.3757 15.32442689  1304","MEAN_MOTION":"15.32442689","REV_AT_EPOCH":"130","ARG_OF_PERICENTER":"39.1426","REF_FRAME":"TEME","FILE":"3505946","CENTER_NAME":"EARTH","MEAN_ANOMALY":"303.3757","ECCENTRICITY":"0.00016010"},{"MEAN_MOTION_DDOT":"0.0000000000000","SEMIMAJOR_AXIS":"6913.789","OBJECT_TYPE":"PAYLOAD","NORAD_CAT_ID":"52607","RCS_SIZE":"LARGE","SITE":"AFETR","FILE":"3505946","REF_FRAME":"TEME","CENTER_NAME":"EARTH","MEAN_ANOMALY":"71.9688","ECCENTRICITY":"0.00018550","LAUNCH_DATE":"2022-05-14","CLASSIFICATION_TYPE":"U","MEAN_MOTION":"15.10179502","TLE_LINE2":"2 52607  53.2174 214.5069 0001855  37.5548  71.9688 15.10179502  1306","RA_OF_ASC_NODE":"214.5069","ARG_OF_PERICENTER":"37.5548","REV_AT_EPOCH":"130","EPHEMERIS_TYPE":"0","OBJECT_NAME":"STARLINK-3947","TIME_SYSTEM":"UTC","GP_ID":"207180193","PERIAPSIS":"534.372","COUNTRY_CODE":"US","BSTAR":"-0.05489400000000","MEAN_ELEMENT_THEORY":"SGP4","MEAN_MOTION_DOT":"-0.00844013","INCLINATION":"53.2174","EPOCH":"2022-06-30T22:00:00.999936","ELEMENT_SET_NO":"999","TLE_LINE1":"1 52607U 22052K   22181.91667824 -.00844013  00000-0 -54894-1 0  9991","DECAY_DATE":null,"APOAPSIS":"536.937","OBJECT_ID":"2022-052K","PERIOD":"95.353"},{"MEAN_MOTION_DDOT":"0.0000000000000","SEMIMAJOR_AXIS":"6845.507","OBJECT_TYPE":"PAYLOAD","NORAD_CAT_ID":"52608","RCS_SIZE":"LARGE","SITE":"AFETR","FILE":"3505946","REF_FRAME":"TEME","MEAN_ANOMALY":"326.2896","CENTER_NAME":"EARTH","ECCENTRICITY":"0.00017110","LAUNCH_DATE":"2022-05-14","CLASSIFICATION_TYPE":"U","MEAN_MOTION":"15.32831340","TLE_LINE2":"2 52608  53.2174 210.7548 0001711  34.4563 326.2896 15.32831340  1318","RA_OF_ASC_NODE":"210.7548","ARG_OF_PERICENTER":"34.4563","REV_AT_EPOCH":"131","EPHEMERIS_TYPE":"0","OBJECT_NAME":"STARLINK-3979","TIME_SYSTEM":"UTC","GP_ID":"207179842","PERIAPSIS":"466.200","COUNTRY_CODE":"US","BSTAR":"-0.02404200000000","MEAN_ELEMENT_THEORY":"SGP4","MEAN_MOTION_DOT":"-0.00713909","INCLINATION":"53.2174","EPOCH":"2022-06-30T22:00:00.999936","ELEMENT_SET_NO":"999","TLE_LINE1":"1 52608U 22052L   22181.91667824 -.00713909  00000-0 -24042-1 0  9993","DECAY_DATE":null,"OBJECT_ID":"2022-052L","APOAPSIS":"468.543","PERIOD":"93.944"},{"MEAN_MOTION_DDOT":"0.0000000000000","OBJECT_TYPE":"PAYLOAD","SEMIMAJOR_AXIS":"6844.510","RCS_SIZE":"LARGE","SITE":"AFETR","NORAD_CAT_ID":"52609","CENTER_NAME":"EARTH","MEAN_ANOMALY":"331.9542","FILE":"3505946","REF_FRAME":"TEME","ECCENTRICITY":"0.00014540","TLE_LINE2":"2 52609  53.2174 210.7655 0001454  44.5491 331.9542 15.33166223  1306","MEAN_MOTION":"15.33166223","RA_OF_ASC_NODE":"210.7655","CLASSIFICATION_TYPE":"U","LAUNCH_DATE":"2022-05-14","ARG_OF_PERICENTER":"44.5491","REV_AT_EPOCH":"130","PERIAPSIS":"465.380","TIME_SYSTEM":"UTC","EPHEMERIS_TYPE":"0","OBJECT_NAME":"STARLINK-3997","GP_ID":"207179691","BSTAR":"-0.02379500000000","MEAN_ELEMENT_THEORY":"SGP4","COUNTRY_CODE":"US","MEAN_MOTION_DOT":"-0.00714064","EPOCH":"2022-06-30T22:00:00.999936","INCLINATION":"53.2174","ELEMENT_SET_NO":"999","APOAPSIS":"467.370","OBJECT_ID":"2022-052M","PERIOD":"93.923","TLE_LINE1":"1 52609U 22052M   22181.91667824 -.00714064  00000-0 -23795-1 0  9991","DECAY_DATE":null},{"MEAN_MOTION_DDOT":"0.0000000000000","NORAD_CAT_ID":"52610","SITE":"AFETR","RCS_SIZE":"LARGE","SEMIMAJOR_AXIS":"6914.493","OBJECT_TYPE":"PAYLOAD","ECCENTRICITY":"0.00018100","FILE":"3505946","REF_FRAME":"TEME","MEAN_ANOMALY":"53.1425","CENTER_NAME":"EARTH","ARG_OF_PERICENTER":"36.9528","REV_AT_EPOCH":"130","LAUNCH_DATE":"2022-05-14","CLASSIFICATION_TYPE":"U","TLE_LINE2":"2 52610  53.2174 214.5055 0001810  36.9528  53.1425 15.09948956  1303","MEAN_MOTION":"15.09948956","RA_OF_ASC_NODE":"214.5055","COUNTRY_CODE":"US","BSTAR":"-0.05550700000000","MEAN_ELEMENT_THEORY":"SGP4","OBJECT_NAME":"STARLINK-3998","EPHEMERIS_TYPE":"0","TIME_SYSTEM":"UTC","GP_ID":"207179944","PERIAPSIS":"535.106","MEAN_MOTION_DOT":"-0.00847727","ELEMENT_SET_NO":"999","INCLINATION":"53.2174","EPOCH":"2022-06-30T22:00:00.999936","TLE_LINE1":"1 52610U 22052N   22181.91667824 -.00847727  00000-0 -55507-1 0  9992","DECAY_DATE":null,"APOAPSIS":"537.609","OBJECT_ID":"2022-052N","PERIOD":"95.367"},{"ELEMENT_SET_NO":"999","EPOCH":"2022-06-30T22:00:00.999936","INCLINATION":"53.2174","APOAPSIS":"536.267","OBJECT_ID":"2022-052P","PERIOD":"95.339","TLE_LINE1":"1 52611U 22052P   22181.91667824 -.00844412  00000-0 -54583-1 0  9994","DECAY_DATE":null,"BSTAR":"-0.05458300000000","MEAN_ELEMENT_THEORY":"SGP4","COUNTRY_CODE":"US","PERIAPSIS":"533.680","EPHEMERIS_TYPE":"0","TIME_SYSTEM":"UTC","OBJECT_NAME":"STARLINK-3980","GP_ID":"207180145","MEAN_MOTION_DOT":"-0.00844412","ECCENTRICITY":"0.00018710","MEAN_ANOMALY":"89.6960","CENTER_NAME":"EARTH","FILE":"3505946","REF_FRAME":"TEME","ARG_OF_PERICENTER":"39.1764","REV_AT_EPOCH":"130","TLE_LINE2":"2 52611  53.2174 214.5084 0001871  39.1764  89.6960 15.10402519  1300","MEAN_MOTION":"15.10402519","RA_OF_ASC_NODE":"214.5084","LAUNCH_DATE":"2022-05-14","CLASSIFICATION_TYPE":"U","MEAN_MOTION_DDOT":"0.0000000000000","SITE":"AFETR","RCS_SIZE":"LARGE","NORAD_CAT_ID":"52611","OBJECT_TYPE":"PAYLOAD","SEMIMAJOR_AXIS":"6913.109"},{"PERIAPSIS":"465.702","TIME_SYSTEM":"UTC","EPHEMERIS_TYPE":"0","OBJECT_NAME":"STARLINK-4002","GP_ID":"207179490","BSTAR":"-0.02390300000000","MEAN_ELEMENT_THEORY":"SGP4","COUNTRY_CODE":"US","MEAN_MOTION_DOT":"-0.00714050","EPOCH":"2022-06-30T22:00:00.999936","INCLINATION":"53.2174","ELEMENT_SET_NO":"999","APOAPSIS":"467.907","OBJECT_ID":"2022-052Q","PERIOD":"93.932","TLE_LINE1":"1 52612U 22052Q   22181.91667824 -.00714050  00000-0 -23903-1 0  9991","DECAY_DATE":null,"MEAN_MOTION_DDOT":"0.0000000000000","OBJECT_TYPE":"PAYLOAD","SEMIMAJOR_AXIS":"6844.940","RCS_SIZE":"MEDIUM","SITE":"AFETR","NORAD_CAT_ID":"52612","MEAN_ANOMALY":"331.9675","CENTER_NAME":"EARTH","FILE":"3505946","REF_FRAME":"TEME","ECCENTRICITY":"0.00016110","TLE_LINE2":"2 52612  53.2174 210.7608 0001611  37.9829 331.9675 15.33021776  1304","MEAN_MOTION":"15.33021776","RA_OF_ASC_NODE":"210.7608","LAUNCH_DATE":"2022-05-14","CLASSIFICATION_TYPE":"U","ARG_OF_PERICENTER":"37.9829","REV_AT_EPOCH":"130"},{"CLASSIFICATION_TYPE":"U","LAUNCH_DATE":"2022-05-14","RA_OF_ASC_NODE":"206.6201","MEAN_MOTION":"15.73223738","TLE_LINE2":"2 52613  53.2143 206.6201 0002696  16.6167 186.2641 15.73223738  1307","REV_AT_EPOCH":"130","ARG_OF_PERICENTER":"16.6167","REF_FRAME":"TEME","FILE":"3505946","CENTER_NAME":"EARTH","MEAN_ANOMALY":"186.2641","ECCENTRICITY":"0.00026960","SEMIMAJOR_AXIS":"6727.827","OBJECT_TYPE":"PAYLOAD","NORAD_CAT_ID":"52613","SITE":"AFETR","RCS_SIZE":"LARGE","MEAN_MOTION_DDOT":"0.0000000000000","DECAY_DATE":null,"TLE_LINE1":"1 52613U 22052R   22181.91667824 -.00022566  00000-0 -15659-3 0  9997","PERIOD":"91.532","OBJECT_ID":"2022-052R","APOAPSIS":"351.506","INCLINATION":"53.2143","EPOCH":"2022-06-30T22:00:00.999936","ELEMENT_SET_NO":"999","MEAN_MOTION_DOT":"-0.00022566","GP_ID":"207180045","TIME_SYSTEM":"UTC","EPHEMERIS_TYPE":"0","OBJECT_NAME":"STARLINK-3921","PERIAPSIS":"347.879","COUNTRY_CODE":"US","MEAN_ELEMENT_THEORY":"SGP4","BSTAR":"-0.00015659000000"}];
